SL-12 R/B(2)            
1 15772U 85042D   26188.44162718  .00000119  00000+0  74762-4 0  9999
2 15772  71.1060 194.7231 0037184 297.5899 227.1538 14.22009761131418
SL-14 R/B               
1 15945U 85069B   26188.69962733  .00000356  00000+0  37296-4 0  9996
2 15945  82.5269 272.0754 0019557 150.7559 209.4757 14.86531585190666
SL-16 R/B               
1 16182U 85097B   26188.10110491 -.00000259  00000+0 -10580-3 0  9993
2 16182  71.0020 249.1538 0005324  67.6367 310.3299 14.16613430104147
SL-14 R/B               
1 16496U 86006B   26188.30681258  .00000435  00000+0  43484-4 0  9992
2 16496  82.5276 147.1798 0074940 235.4072 124.0061 14.86964011166986
COSMOS 1743             
1 16719U 86034A   26188.76119823  .00041923  00000+0  36248-3 0  9991
2 16719  82.5272 306.8270 0005111 200.4989 159.6068 15.68995077199010
SL-14 R/B               
1 16792U 86046B   26188.76231671  .00000388  00000+0  41772-4 0  9990
2 16792  82.4833 326.7328 0022859 187.4268 172.6613 14.85686678144237
SL-14 R/B               
1 16882U 86055B   26188.69553558  .00000337  00000+0  35987-4 0  9998
2 16882  82.5197  13.8485 0017466 297.3553 172.0945 14.85736903137180
AJISAI (EGS)            
1 16908U 86061A   26188.77889837 -.00000102  00000+0 -32002-4 0  9992
2 16908  50.0097  84.0764 0011112 232.9435 216.9608 12.44516691482959
SL-14 R/B               
1 17567U 87024B   26188.41544133  .00000390  00000+0  41506-4 0  9998
2 17567  82.5291 340.2357 0017193 220.5940 139.3996 14.86227714105910
COSMOS 1833             
1 17589U 87027A   26188.77878243  .00000167  00000+0  11462-3 0  9995
2 17589  70.9211  73.5885 0023728  20.8107 339.3974 14.13063943 27289
SL-16 R/B               
1 17590U 87027B   26188.75609539 -.00000228  00000+0 -89243-4 0  9998
2 17590  71.0030  23.4835 0007118 289.7960  70.2396 14.17174264 32355
SL-14 R/B               
1 17912U 87038B   26188.40469468  .00000349  00000+0  37525-4 0  9993
2 17912  82.5005 184.0278 0020558 126.2292 234.0828 14.85457851 97007
COSMOS 1844             
1 17973U 87041A   26188.26055810  .00000349  00000+0  20582-3 0  9994
2 17973  70.8988 141.9654 0031818 206.4878 153.4619 14.14576284 20491
SL-14 R/B               
1 18153U 87055B   26188.09107745  .00000303  00000+0  32078-4 0  9990
2 18153  82.4977 236.4660 0020042 343.0325  17.0218 14.85723677 87668
COSMOS 1867             
1 18187U 87060A   26188.74218582 -.00000035  00000+0  24414-4 0  9995
2 18187  65.0119 330.4921 0016980 282.0905  77.8277 14.31517975 37125
SL-14 R/B               
1 18749U 88001B   26188.76804469  .00000308  00000+0  32663-4 0  9999
2 18749  82.5129  82.4116 0017484 196.5255 163.5394 14.85623625 59857
COSMOS 1933             
1 18958U 88020A   26188.79109067  .00003191  00000+0  15167-3 0  9999
2 18958  82.5133 132.0305 0005612 126.2471 233.9282 15.18855728 68458
SL-3 R/B                
1 19046U 88032B   26188.70446619  .00003028  00000+0  13866-3 0  9992
2 19046  97.5268 171.7270 0025757 171.1014 189.0683 15.20994128 70345
SL-16 R/B               
1 19120U 88039B   26187.99116877  .00000066  00000+0  53881-4 0  9993
2 19120  71.0130 176.2820 0021072 162.4747 197.7110 14.19632005975318
COSMOS 1953             
1 19210U 88050A   26188.81487066  .00004534  00000+0  15342-3 0  9992
2 19210  82.5066  37.2273 0012090  63.3845 296.8632 15.30266305 56140
SL-8 R/B                
1 19257U 88053B   26188.16088633  .00000154  00000+0  58385-4 0  9990
2 19257  74.0467 252.2397 0019465  40.3863 349.0507 14.38975547993780
COSMOS 1975             
1 19573U 88093A   26188.43605462  .00004599  00000+0  15884-3 0  9993
2 19573  82.5199 357.3283 0012572 106.5175 253.7447 15.29598976 37704
SL-14 R/B               
1 19574U 88093B   26188.75649860  .00000320  00000+0  33874-4 0  9997
2 19574  82.5319 289.3347 0020675   5.2400 109.7167 14.85756844 18847
SL-16 R/B               
1 19650U 88102B   26188.20665790 -.00000194  00000+0 -73960-4 0  9994
2 19650  70.9995 260.0163 0014728 197.7374 162.3237 14.16169142943814
INTERCOSMOS 24          
1 20261U 89080A   26188.50662568  .00000467  00000+0  13228-3 0  9994
2 20261  82.6047  26.4205 1187614  14.7893 348.4971 12.59688007681882
SL-14 R/B               
1 20262U 89080C   26188.72216567  .00000084  00000+0  25152-4 0  9998
2 20262  82.5942  96.1145 1228448 270.3940  75.6828 12.50577445675154
DELTA 1 R/B             
1 20323U 89089B   26188.01442361  .00000276  00000+0  76554-4 0  9995
2 20323  97.0634  16.3996 0070544 105.2394 255.6618 14.50744229913036
ARIANE 40 R/B           
1 20443U 90005H   26188.75214759  .00000188  00000+0  73041-4 0  9997
2 20443  98.2948 245.7278 0009744 196.3444 163.7432 14.39938359910083
DELTA 2 R/B(1)          
1 20453U 90008B   26188.15130585  .00086839  00000+0  55418-3 0  9993
2 20453  35.6000 101.7768 0062651 300.8841  58.5750 15.72328797944844
COSMOS 2058             
1 20465U 90010A   26188.78239095  .00001783  00000+0  10174-3 0  9999
2 20465  82.4676 289.0447 0007977 281.6968  78.3367 15.12133909960380
