OBJECT_NAME,OBJECT_ID,EPOCH,MEAN_MOTION,ECCENTRICITY,INCLINATION,RA_OF_ASC_NODE,ARG_OF_PERICENTER,MEAN_ANOMALY,EPHEMERIS_TYPE,CLASSIFICATION_TYPE,NORAD_CAT_ID,ELEMENT_SET_NO,REV_AT_EPOCH,BSTAR,MEAN_MOTION_DOT,MEAN_MOTION_DDOT
SL-12 R/B(2),1985-042D,2026-07-07T10:35:56.588352,14.22009761,.00371848,71.1060,194.7231,297.5899,227.1538,0,U,15772,999,13141,.74761661E-4,.119E-5,0
SL-14 R/B,1985-069B,2026-07-07T16:47:27.801312,14.86531585,.0019557,82.5269,272.0754,150.7559,209.4757,0,U,15945,999,19066,.37296E-4,.356E-5,0
SL-16 R/B,1985-097B,2026-07-07T02:25:35.464224,14.16613430,.00053246,71.0020,249.1538,67.6367,310.3299,0,U,16182,999,10414,-.10580117E-3,-.259E-5,0
SL-14 R/B,1986-006B,2026-07-07T07:21:48.606912,14.86964011,.00749408,82.5276,147.1798,235.4072,124.0061,0,U,16496,999,16698,.43483686E-4,.435E-5,0
COSMOS 1743,1986-034A,2026-07-07T18:16:07.527072,15.68995077,.0005111,82.5272,306.8270,200.4989,159.6068,0,U,16719,999,19901,.36248E-3,.41923E-3,0
SL-14 R/B,1986-046B,2026-07-07T18:17:44.163744,14.85686678,.0022859,82.4833,326.7328,187.4268,172.6613,0,U,16792,999,14423,.41772E-4,.388E-5,0
SL-14 R/B,1986-055B,2026-07-07T16:41:34.274112,14.85736903,.0017466,82.5197,13.8485,297.3553,172.0945,0,U,16882,999,13718,.35987E-4,.337E-5,0
AJISAI (EGS),1986-061A,2026-07-07T18:41:36.819168,12.44516691,.0011112,50.0097,84.0764,232.9435,216.9608,0,U,16908,999,48295,-.32002E-4,-.102E-5,0
SL-14 R/B,1987-024B,2026-07-07T09:58:14.130912,14.86227714,.00171933,82.5291,340.2357,220.5940,139.3996,0,U,17567,999,10591,.41505852E-4,.39E-5,0
COSMOS 1833,1987-027A,2026-07-07T18:41:26.801952,14.13063943,.0023728,70.9211,73.5885,20.8107,339.3974,0,U,17589,999,2728,.11462E-3,.167E-5,0
SL-16 R/B,1987-027B,2026-07-07T18:08:46.641696,14.17174264,.0007118,71.0030,23.4835,289.7960,70.2396,0,U,17590,999,3235,-.89243E-4,-.228E-5,0
SL-14 R/B,1987-038B,2026-07-07T09:42:45.620352,14.85457851,.0020558,82.5005,184.0278,126.2292,234.0828,0,U,17912,999,9700,.37525235E-4,.349E-5,0
COSMOS 1844,1987-041A,2026-07-07T06:15:12.219840,14.14576284,.00318181,70.8988,141.9654,206.4878,153.4619,0,U,17973,999,2049,.20582218E-3,.349E-5,0
SL-14 R/B,1987-055B,2026-07-07T02:11:09.091680,14.85723677,.00200426,82.4977,236.4660,343.0325,17.0218,0,U,18153,999,8766,.32077932E-4,.303E-5,0
COSMOS 1867,1987-060A,2026-07-07T17:48:44.854848,14.31517975,.001698,65.0119,330.4921,282.0905,77.8277,0,U,18187,999,3712,.24414E-4,-.35E-6,0
SL-14 R/B,1988-001B,2026-07-07T18:25:59.061216,14.85623625,.0017484,82.5129,82.4116,196.5255,163.5394,0,U,18749,999,5985,.32663E-4,.308E-5,0
COSMOS 1933,1988-020A,2026-07-07T18:59:10.233888,15.18855728,.0005612,82.5133,132.0305,126.2471,233.9282,0,U,18958,999,6845,.15167E-3,.3191E-4,0
SL-3 R/B,1988-032B,2026-07-07T16:54:25.878816,15.20994128,.0025757,97.5268,171.7270,171.1014,189.0683,0,U,19046,999,7034,.13866E-3,.3028E-4,0
SL-16 R/B,1988-039B,2026-07-06T23:47:16.981728,14.19632005,.00210729,71.0130,176.2820,162.4747,197.7110,0,U,19120,999,97531,.53880552E-4,.66E-6,0
COSMOS 1953,1988-050A,2026-07-07T19:33:24.825024,15.30266305,.001209,82.5066,37.2273,63.3845,296.8632,0,U,19210,999,5614,.15342E-3,.4534E-4,0
SL-8 R/B,1988-053B,2026-07-07T03:51:40.578912,14.38975547,.00194651,74.0467,252.2397,40.3863,349.0507,0,U,19257,999,99378,.58384513E-4,.154E-5,0
COSMOS 1975,1988-093A,2026-07-07T10:27:55.119168,15.29598976,.0012572,82.5199,357.3283,106.5175,253.7447,0,U,19573,999,3770,.15884281E-3,.4599E-4,0
SL-14 R/B,1988-093B,2026-07-07T18:09:21.479040,14.85756844,.0020675,82.5319,289.3347,5.2400,109.7167,0,U,19574,999,1884,.33874E-4,.32E-5,0
SL-16 R/B,1988-102B,2026-07-07T04:57:35.242560,14.16169142,.00147283,70.9995,260.0163,197.7374,162.3237,0,U,19650,999,94381,-.73960086E-4,-.194E-5,0
INTERCOSMOS 24,1989-080A,2026-07-07T12:09:32.458752,12.59688007,.11876149,82.6047,26.4205,14.7893,348.4971,0,U,20261,999,68188,.13227671E-3,.467E-5,0
SL-14 R/B,1989-080C,2026-07-07T17:19:55.113888,12.50577445,.1228448,82.5942,96.1145,270.3940,75.6828,0,U,20262,999,67515,.25152E-4,.84E-6,0
DELTA 1 R/B,1989-089B,2026-07-07T00:20:46.199904,14.50744229,.00705449,97.0634,16.3996,105.2394,255.6618,0,U,20323,999,91303,.76554009E-4,.276E-5,0
ARIANE 40 R/B,1990-005H,2026-07-07T18:03:05.551776,14.39938359,.0009744,98.2948,245.7278,196.3444,163.7432,0,U,20443,999,91008,.73041E-4,.188E-5,0
DELTA 2 R/B(1),1990-008B,2026-07-07T03:37:52.825440,15.72328797,.00626512,35.6000,101.7768,300.8841,58.5750,0,U,20453,999,94484,.55418266E-3,.86839E-3,0
COSMOS 2058,1990-010A,2026-07-07T18:46:38.578080,15.12133909,.0007977,82.4676,289.0447,281.6968,78.3367,0,U,20465,999,96038,.10174E-3,.1783E-4,0
